{
  "norad_id": 62568,
  "name": "STARLINK-32760",
  "history": [
    {
      "epoch": "2026-03-28T17:38:42.177696",
      "apogee_km": 484.7377884673915,
      "perigee_km": 481.03283641867165,
      "latitude_deg": -42.997502029740076,
      "longitude_deg": 147.38019744004123,
      "semi_major_axis_km": 6861.022312443031,
      "eccentricity": 0.00027,
      "inclination_deg": 43.0038,
      "raan_deg": 185.1602,
      "arg_perigee_deg": 283.4164,
      "mean_anomaly_deg": 76.6387,
      "mean_motion_rev_day": 15.27634699
    }
  ]
}