{"fetched_at":"2026-03-30T06:02:59Z","count":15439,"tles":[{"name":"STARLINK-32760","line1":"1 62568U 25006Q   26087.73521039  .00027766  00000+0  10130-2 0  9997","line2":"2 62568  43.0038 185.1602 0002700 283.4164  76.6387 15.27634699 67773","category":"Starlink"}]}